STARLINK-3674           
1 51975U 22025V   26068.27228820  .00001831  00000+0  73980-4 0  9994
2 51975  53.1603  25.7727 0001424  85.3718 274.7445 15.30177312220962
TRANSPORTER-11 OBJECT A 
1 60468U 24149A   26068.74646182  .00010774  00000+0  36054-3 0  9993
2 60468  97.3780 149.0949 0003110 191.0010 169.1164 15.31141332 86830
